{"type": "FeatureCollection", "features": [ {"type": "Feature", "properties": {"norad_id": 66052, "name": "HRC MONOBLOCK CAMERA", "group": "stations", "lat": -50.81762350214832, "lon": 22.30689707097565, "alt_km": 406.6479983217141, "timestamp": "2025-12-21T07:34:33.334558+00:00", "meta": {"OBJECT_NAME": "HRC MONOBLOCK CAMERA", "OBJECT_ID": "1998-067XR", "EPOCH": "2025-12-20T19:35:01.873824", "MEAN_MOTION": 15.5467343, "ECCENTRICITY": 0.00023968, "INCLINATION": 51.6308, "RA_OF_ASC_NODE": 101.2223, "ARG_OF_PERICENTER": 223.3083, "MEAN_ANOMALY": 136.772, "EPHEMERIS_TYPE": 0, "CLASSIFICATION_TYPE": "U", "NORAD_CAT_ID": 66052, "ELEMENT_SET_NO": 999, "REV_AT_EPOCH": 1009, "BSTAR": 0.00038306555, "MEAN_MOTION_DOT": 0.0002547, "MEAN_MOTION_DDOT": 0}, "tle": {"line1": "1 66052U 98067XR  25354.81599391  .00025470  00000+0  38307-3 0  9994", "line2": "2 66052  51.6308 101.2223 0002396 223.3083 136.7720 15.54673430 10090"}}, "geometry": {"type": "Point", "coordinates": [22.30689707097565, -50.81762350214832]}}, {"type": "Feature", "properties": {"norad_id": 66174, "name": "HTV-X1", "group": "stations", "lat": 17.59960724281559, "lon": 114.56303840132009, "alt_km": 416.27582092024113, "timestamp": "2025-12-21T07:34:33.334568+00:00", "meta": {"OBJECT_NAME": "HTV-X1", "OBJECT_ID": "2025-241A", "EPOCH": "2025-12-20T16:00:06.135552", "MEAN_MOTION": 15.49686708, "ECCENTRICITY": 0.00031636, "INCLINATION": 51.6321, "RA_OF_ASC_NODE": 103.2234, "ARG_OF_PERICENTER": 277.4707, "MEAN_ANOMALY": 82.5922, "EPHEMERIS_TYPE": 0, "CLASSIFICATION_TYPE": "U", "NORAD_CAT_ID": 66174, "ELEMENT_SET_NO": 999, "REV_AT_EPOCH": 51, "BSTAR": 0.00013711052, "MEAN_MOTION_DOT": 7.293e-05, "MEAN_MOTION_DDOT": 0}, "tle": {"line1": "1 66174U 25241A   25354.66673768  .00007293  00000+0  13711-3 0  9992", "line2": "2 66174  51.6321 103.2234 0003163 277.4707  82.5922 15.49686708   514"}}, "geometry": {"type": "Point", "coordinates": [114.56303840132009, 17.59960724281559]}}, {"type": "Feature", "properties": {"norad_id": 66515, "name": "SZ-21 MODULE", "group": "stations", "lat": 35.64389029063655, "lon": 89.44581767817674, "alt_km": 377.0587778436966, "timestamp": "2025-12-21T07:34:33.334577+00:00", "meta": {"OBJECT_NAME": "SZ-21 MODULE", "OBJECT_ID": "2025-246C", "EPOCH": "2025-12-20T23:24:14.872896", "MEAN_MOTION": 15.62888699, "ECCENTRICITY": 0.00054503, "INCLINATION": 41.4771, "RA_OF_ASC_NODE": 325.7933, "ARG_OF_PERICENTER": 303.7455, "MEAN_ANOMALY": 56.2865, "EPHEMERIS_TYPE": 0, "CLASSIFICATION_TYPE": "U", "NORAD_CAT_ID": 66515, "ELEMENT_SET_NO": 999, "REV_AT_EPOCH": 573, "BSTAR": 0.00022985973, "MEAN_MOTION_DOT": 0.00021102, "MEAN_MOTION_DDOT": 0}, "tle": {"line1": "1 66515U 25246C   25354.97517214  .00021102  00000+0  22986-3 0  9992", "line2": "2 66515  41.4771 325.7933 0005450 303.7455  56.2865 15.62888699  5731"}}, "geometry": {"type": "Point", "coordinates": [89.44581767817674, 35.64389029063655]}}, {"type": "Feature", "properties": {"norad_id": 66645, "name": "SHENZHOU-22", "group": "stations", "lat": 39.39907277376111, "lon": 76.17745500195416, "alt_km": 377.3409931993856, "timestamp": "2025-12-21T07:34:33.334586+00:00", "meta": {"OBJECT_NAME": "SHENZHOU-22", "OBJECT_ID": "2025-272A", "EPOCH": "2025-12-20T23:26:14.890272", "MEAN_MOTION": 15.59514827, "ECCENTRICITY": 0.00077445, "INCLINATION": 41.4685, "RA_OF_ASC_NODE": 326.6888, "ARG_OF_PERICENTER": 103.1948, "MEAN_ANOMALY": 256.9755, "EPHEMERIS_TYPE": 0, "CLASSIFICATION_TYPE": "U", "NORAD_CAT_ID": 66645, "ELEMENT_SET_NO": 999, "REV_AT_EPOCH": 26519, "BSTAR": 0.00017446348, "MEAN_MOTION_DOT": 0.00013949, "MEAN_MOTION_DDOT": 0}, "tle": {"line1": "1 66645U 25272A   25354.97656123  .00013949  00000+0  17446-3 0  9993", "line2": "2 66645  41.4685 326.6888 0007744 103.1948 256.9755 15.59514827265195"}}, "geometry": {"type": "Point", "coordinates": [76.17745500195416, 39.39907277376111]}}, {"type": "Feature", "properties": {"norad_id": 66664, "name": "SOYUZ-MS 28", "group": "stations", "lat": 17.59960856719421, "lon": 114.56303959287064, "alt_km": 416.2758207761035, "timestamp": "2025-12-21T07:34:33.334595+00:00", "meta": {"OBJECT_NAME": "SOYUZ-MS 28", "OBJECT_ID": "2025-275A", "EPOCH": "2025-12-20T16:00:06.135552", "MEAN_MOTION": 15.49686708, "ECCENTRICITY": 0.00031636, "INCLINATION": 51.6321, "RA_OF_ASC_NODE": 103.2234, "ARG_OF_PERICENTER": 277.4707, "MEAN_ANOMALY": 82.5922, "EPHEMERIS_TYPE": 0, "CLASSIFICATION_TYPE": "U", "NORAD_CAT_ID": 66664, "ELEMENT_SET_NO": 999, "REV_AT_EPOCH": 128, "BSTAR": 0.00013711052, "MEAN_MOTION_DOT": 7.293e-05, "MEAN_MOTION_DDOT": 0}, "tle": {"line1": "1 66664U 25275A   25354.66673768  .00007293  00000+0  13711-3 0  9993", "line2": "2 66664  51.6321 103.2234 0003163 277.4707  82.5922 15.49686708  1283"}}, "geometry": {"type": "Point", "coordinates": [114.56303959287064, 17.59960856719421]}}, {"type": "Feature", "properties": {"norad_id": 66906, "name": "1998-067XS", "group": "stations", "lat": 51.58378741036765, "lon": -172.66571481461887, "alt_km": 408.5033411300137, "timestamp": "2025-12-21T07:34:33.334605+00:00", "meta": {"OBJECT_NAME": "1998-067XS", "OBJECT_ID": "1998-067XS", "EPOCH": "2025-12-20T11:05:35.991168", "MEAN_MOTION": 15.50962254, "ECCENTRICITY": 0.00030029, "INCLINATION": 51.6311, "RA_OF_ASC_NODE": 104.1082, "ARG_OF_PERICENTER": 237.5, "MEAN_ANOMALY": 122.5699, "EPHEMERIS_TYPE": 0, "CLASSIFICATION_TYPE": "U", "NORAD_CAT_ID": 66906, "ELEMENT_SET_NO": 999, "REV_AT_EPOCH": 281, "BSTAR": 0.00037246497, "MEAN_MOTION_DOT": 0.00021596, "MEAN_MOTION_DDOT": 0}, "tle": {"line1": "1 66906U 98067XS  25354.46222212  .00021596  00000+0  37246-3 0  9994", "line2": "2 66906  51.6311 104.1082 0003002 237.5000 122.5699 15.50962254  2818"}}, "geometry": {"type": "Point", "coordinates": [-172.66571481461887, 51.58378741036765]}}, {"type": "Feature", "properties": {"norad_id": 66907, "name": "1998-067XT", "group": "stations", "lat": 30.14859465056729, "lon": -107.63729009553964, "alt_km": 407.6224957187178, "timestamp": "2025-12-21T07:34:33.334614+00:00", "meta": {"OBJECT_NAME": "1998-067XT", "OBJECT_ID": "1998-067XT", "EPOCH": "2025-12-19T11:42:50.767776", "MEAN_MOTION": 15.52255247, "ECCENTRICITY": 0.0003998, "INCLINATION": 51.6306, "RA_OF_ASC_NODE": 108.8528, "ARG_OF_PERICENTER": 265.7173, "MEAN_ANOMALY": 94.336, "EPHEMERIS_TYPE": 0, "CLASSIFICATION_TYPE": "U", "NORAD_CAT_ID": 66907, "ELEMENT_SET_NO": 999, "REV_AT_EPOCH": 266, "BSTAR": 0.00077339, "MEAN_MOTION_DOT": 0.00047666, "MEAN_MOTION_DDOT": 0}, "tle": {"line1": "1 66907U 98067XT  25353.48808759  .00047666  00000+0  77339-3 0  9995", "line2": "2 66907  51.6306 108.8528 0003998 265.7173  94.3360 15.52255247  2660"}}, "geometry": {"type": "Point", "coordinates": [-107.63729009553964, 30.14859465056729]}}, {"type": "Feature", "properties": {"norad_id": 66908, "name": "1998-067XU", "group": "stations", "lat": 26.765320070645597, "lon": -103.79925011324482, "alt_km": 407.7629804905482, "timestamp": "2025-12-21T07:34:33.334623+00:00", "meta": {"OBJECT_NAME": "1998-067XU", "OBJECT_ID": "1998-067XU", "EPOCH": "2025-12-20T13:57:38.962944", "MEAN_MOTION": 15.52465702, "ECCENTRICITY": 0.0003923, "INCLINATION": 51.6312, "RA_OF_ASC_NODE": 103.4063, "ARG_OF_PERICENTER": 272.2862, "MEAN_ANOMALY": 87.7679, "EPHEMERIS_TYPE": 0, "CLASSIFICATION_TYPE": "U", "NORAD_CAT_ID": 66908, "ELEMENT_SET_NO": 999, "REV_AT_EPOCH": 283, "BSTAR": 0.00073918, "MEAN_MOTION_DOT": 0.00045874, "MEAN_MOTION_DDOT": 0}, "tle": {"line1": "1 66908U 98067XU  25354.58170096  .00045874  00000+0  73918-3 0  9992", "line2": "2 66908  51.6312 103.4063 0003923 272.2862  87.7679 15.52465702  2836"}}, "geometry": {"type": "Point", "coordinates": [-103.79925011324482, 26.765320070645597]}}, {"type": "Feature", "properties": {"norad_id": 66909, "name": "SILVERSAT", "group": "stations", "lat": 22.251090866238556, "lon": -99.1749243471093, "alt_km": 407.7692543766643, "timestamp": "2025-12-21T07:34:33.334632+00:00", "meta": {"OBJECT_NAME": "SILVERSAT", "OBJECT_ID": "1998-067XV", "EPOCH": "2025-12-19T13:13:09.424128", "MEAN_MOTION": 15.5251652, "ECCENTRICITY": 0.0003839, "INCLINATION": 51.6306, "RA_OF_ASC_NODE": 108.5226, "ARG_OF_PERICENTER": 268.696, "MEAN_ANOMALY": 91.359, "EPHEMERIS_TYPE": 0, "CLASSIFICATION_TYPE": "U", "NORAD_CAT_ID": 66909, "ELEMENT_SET_NO": 999, "REV_AT_EPOCH": 267, "BSTAR": 0.00079912, "MEAN_MOTION_DOT": 0.00049748, "MEAN_MOTION_DDOT": 0}, "tle": {"line1": "1 66909U 98067XV  25353.55080352  .00049748  00000+0  79912-3 0  9998", "line2": "2 66909  51.6306 108.5226 0003839 268.6960  91.3590 15.52516520  2671"}}, "geometry": {"type": "Point", "coordinates": [-99.1749243471093, 22.251090866238556]}}, {"type": "Feature", "properties": {"norad_id": 66910, "name": "1998-067XW", "group": "stations", "lat": 14.689683356718321, "lon": -92.26693398630218, "alt_km": 407.6479104548325, "timestamp": "2025-12-21T07:34:33.334641+00:00", "meta": {"OBJECT_NAME": "1998-067XW", "OBJECT_ID": "1998-067XW", "EPOCH": "2025-12-20T20:04:19.500384", "MEAN_MOTION": 15.52648438, "ECCENTRICITY": 0.00041993, "INCLINATION": 51.6307, "RA_OF_ASC_NODE": 102.1064, "ARG_OF_PERICENTER": 252.0731, "MEAN_ANOMALY": 107.9801, "EPHEMERIS_TYPE": 0, "CLASSIFICATION_TYPE": "U", "NORAD_CAT_ID": 66910, "ELEMENT_SET_NO": 999, "REV_AT_EPOCH": 287, "BSTAR": 0.00071943778, "MEAN_MOTION_DOT": 0.0004493, "MEAN_MOTION_DDOT": 0}, "tle": {"line1": "1 66910U 98067XW  25354.83633681  .00044930  00000+0  71944-3 0  9996", "line2": "2 66910  51.6307 102.1064 0004199 252.0731 107.9801 15.52648438  2872"}}, "geometry": {"type": "Point", "coordinates": [-92.26693398630218, 14.689683356718321]}}]}